OBJECT_NAME,OBJECT_ID,EPOCH,MEAN_MOTION,ECCENTRICITY,INCLINATION,RA_OF_ASC_NODE,ARG_OF_PERICENTER,MEAN_ANOMALY,EPHEMERIS_TYPE,CLASSIFICATION_TYPE,NORAD_CAT_ID,ELEMENT_SET_NO,REV_AT_EPOCH,BSTAR,MEAN_MOTION_DOT,MEAN_MOTION_DDOT
STARLINK-32939,2025-043T,2026-07-11T23:35:15.647136,15.27616146,.00018639,43.0011,34.0948,271.4727,88.5911,0,U,63149,999,7637,.50777454E-3,.13752E-3,0
STARLINK-32919,2025-043U,2026-07-11T20:47:18.789216,15.27590405,.0001128,43.0026,34.9364,20.9346,339.1552,0,U,63150,999,7635,.61113E-3,.16598E-3,0
STARLINK-32876,2025-043V,2026-07-11T23:07:32.484288,15.27587699,.00039677,42.9878,33.9544,45.5932,314.5244,0,U,63151,999,7637,.4581006E-3,.12369E-3,0
STARLINK-32915,2025-043W,2026-07-11T23:50:30.996384,15.27592807,.00011358,42.9995,41.0515,306.3364,53.7383,0,U,63152,999,7629,.61853525E-3,.16804E-3,0
SEDNA-2,2025-009DQ,2026-07-12T06:22:27.863328,15.12239987,.00079511,97.4538,266.2129,345.3696,14.7304,0,U,63153,999,8191,.22002319E-3,.3741E-4,0
TJS-15,2025-045A,2026-07-11T18:18:49.900320,1.00270450,.0003375,0.3042,85.6792,295.3179,277.7466,0,U,63157,999,500,0,-.26E-5,0
QIANFAN-73,2025-046A,2026-07-12T06:40:12.012384,13.51014233,.00137701,88.9723,298.0765,224.6329,135.3714,0,U,63159,999,7597,.12977415E-3,.96E-6,0
QIANFAN-74,2025-046B,2026-07-12T02:43:30.787392,13.51015617,.00024851,88.9723,297.9832,107.6343,252.5080,0,U,63160,999,7601,.12314928E-3,.92E-6,0
QIANFAN-75,2025-046C,2026-07-12T05:58:53.661216,13.51014609,.00147423,88.9724,298.2057,228.6498,131.3386,0,U,63161,999,7590,.14660226E-3,.107E-5,0
QIANFAN-76,2025-046D,2026-07-12T05:52:53.657472,13.51013146,.00122789,88.9724,298.1860,227.9024,132.1084,0,U,63162,999,7591,.1546426E-3,.112E-5,0
QIANFAN-77,2025-046E,2026-07-12T06:03:55.883232,13.96220225,.00169169,88.9727,294.4500,135.5455,224.7082,0,U,63163,999,7796,.11994465E-3,.179E-5,0
QIANFAN-78,2025-046F,2026-07-12T06:52:11.943840,13.51008498,.00135875,88.9723,298.0437,230.7716,129.2230,0,U,63164,999,7599,.14144859E-3,.103E-5,0
QIANFAN-79,2025-046G,2026-07-12T07:33:38.496096,13.51018786,.00134333,88.9727,298.1559,229.0063,130.9927,0,U,63165,999,7594,.14009951E-3,.102E-5,0
QIANFAN-80,2025-046H,2026-07-12T06:10:48.912384,13.51015988,.00121309,88.9724,297.8630,233.4687,126.5348,0,U,63166,999,7609,.13676189E-3,.1E-5,0
QIANFAN-81,2025-046J,2026-07-12T05:40:58.221408,13.51023461,.00137682,88.9723,297.9327,222.6106,137.3978,0,U,63167,999,7604,.12899743E-3,.95E-6,0
QIANFAN-82,2025-046K,2026-07-12T06:28:24.227040,13.51017896,.00113943,88.9724,297.9734,228.5590,131.4583,0,U,63168,999,7603,.11806603E-3,.88E-6,0
QIANFAN-83,2025-046L,2026-07-12T06:38:16.009152,13.62050192,.00137066,88.9725,297.3325,201.2753,158.7837,0,U,63169,999,7639,.13791208E-3,.119E-5,0
QIANFAN-84,2025-046M,2026-07-12T05:23:38.222016,13.51043439,.00145681,88.9723,298.1107,226.5737,133.4203,0,U,63170,999,7595,.13036539E-4,.2E-6,0
QIANFAN-85,2025-046N,2026-07-12T05:17:16.600992,13.51015676,.0011937,88.9723,297.9813,227.7624,132.2515,0,U,63171,999,7602,.1303597E-3,.96E-6,0
QIANFAN-86,2025-046P,2026-07-12T07:15:50.366592,13.51023090,.00096584,88.9725,297.8399,230.3683,129.6616,0,U,63172,999,7611,.8651571E-4,.68E-6,0
QIANFAN-87,2025-046Q,2026-07-12T04:47:46.116384,13.51008654,.00103578,88.9722,297.9543,225.7680,134.2622,0,U,63173,999,7603,.13105514E-3,.97E-6,0
QIANFAN-88,2025-046R,2026-07-12T06:58:08.342976,13.51016394,.00105196,88.9724,297.9047,235.3086,124.7075,0,U,63174,999,7607,.13564872E-3,.1E-5,0
QIANFAN-89,2025-046S,2026-07-12T06:04:40.849248,13.51023561,.00153802,88.9724,298.0975,227.4507,132.5347,0,U,63175,999,7596,.14316759E-3,.104E-5,0
QIANFAN-90,2025-046T,2026-07-12T06:46:07.613184,13.51015783,.00123826,88.9724,298.0674,224.1359,135.8805,0,U,63176,999,7598,.14765079E-3,.107E-5,0
PUNCH-NFI (SMEX 15A),2025-047A,2026-07-11T23:27:04.659264,14.74795162,.00124911,97.9568,18.0160,80.3853,279.8767,0,U,63178,999,7173,.48466395E-4,.275E-5,0
PUNCH-WFI 1 (SMEX 15B),2025-047B,2026-07-11T23:06:16.559424,14.74375747,.00104318,97.9587,17.8428,97.5587,262.6807,0,U,63179,999,7171,.50912238E-4,.288E-5,0
PUNCH-WFI 3 (SMEX 15D),2025-047C,2026-07-11T23:39:01.018080,14.74377299,.00114751,97.9550,17.5693,89.5046,270.7477,0,U,63180,999,7171,.51256985E-4,.29E-5,0
PUNCH-WFI 2 (SMEX 15C),2025-047D,2026-07-12T00:12:01.673280,14.74377504,.00107801,97.9571,17.6660,101.2357,259.0064,0,U,63181,999,7171,.51736279E-4,.293E-5,0
SPHEREX (MIDEX 9),2025-047E,2026-07-11T23:05:21.472512,14.74110517,.0011696,97.9582,17.3302,111.0725,249.1736,0,U,63182,999,7169,.89007114E-4,.537E-5,0
STARLINK-11602 [DTC],2025-048A,2026-07-12T06:53:25.107360,15.70942171,.00009325,42.9994,289.1791,252.2749,107.8017,0,U,63183,999,7773,.10194597E-2,.133045E-2,0
