STARLINK-32939          
1 63149U 25043T   26192.98281999  .00013752  00000+0  50777-3 0  9998
2 63149  43.0011  34.0948 0001863 271.4727  88.5911 15.27616146 76374
STARLINK-32919          
1 63150U 25043U   26192.86618969  .00016598  00000+0  61113-3 0  9995
2 63150  43.0026  34.9364 0001128  20.9346 339.1552 15.27590405 76354
STARLINK-32876          
1 63151U 25043V   26192.96357042  .00012369  00000+0  45810-3 0  9997
2 63151  42.9878  33.9544 0003967  45.5932 314.5244 15.27587699 76372
STARLINK-32915          
1 63152U 25043W   26192.99341431  .00016804  00000+0  61854-3 0  9990
2 63152  42.9995  41.0515 0001135 306.3364  53.7383 15.27592807 76297
SEDNA-2                 
1 63153U 25009DQ  26193.26560027  .00003741  00000+0  22002-3 0  9996
2 63153  97.4538 266.2129 0007951 345.3696  14.7304 15.12239987 81917
TJS-15                  
1 63157U 25045A   26192.76307755 -.00000260  00000+0  00000+0 0  9995
2 63157   0.3042  85.6792 0003375 295.3179 277.7466  1.00270450  5007
QIANFAN-73              
1 63159U 25046A   26193.27791681  .00000096  00000+0  12977-3 0  9996
2 63159  88.9723 298.0765 0013770 224.6329 135.3714 13.51014233 75971
QIANFAN-74              
1 63160U 25046B   26193.11355078  .00000092  00000+0  12315-3 0  9999
2 63160  88.9723 297.9832 0002485 107.6343 252.5080 13.51015617 76014
QIANFAN-75              
1 63161U 25046C   26193.24923219  .00000107  00000+0  14660-3 0  9994
2 63161  88.9724 298.2057 0014742 228.6498 131.3386 13.51014609 75903
QIANFAN-76              
1 63162U 25046D   26193.24506548  .00000112  00000+0  15464-3 0  9996
2 63162  88.9724 298.1860 0012278 227.9024 132.1084 13.51013146 75914
QIANFAN-77              
1 63163U 25046E   26193.25273013  .00000179  00000+0  11994-3 0  9993
2 63163  88.9727 294.4500 0016916 135.5455 224.7082 13.96220225 77963
QIANFAN-78              
1 63164U 25046F   26193.28624935  .00000103  00000+0  14145-3 0  9998
2 63164  88.9723 298.0437 0013587 230.7716 129.2230 13.51008498 75990
QIANFAN-79              
1 63165U 25046G   26193.31502889  .00000102  00000+0  14010-3 0  9996
2 63165  88.9727 298.1559 0013433 229.0063 130.9927 13.51018786 75945
QIANFAN-80              
1 63166U 25046H   26193.25751056  .00000100  00000+0  13676-3 0  9997
2 63166  88.9724 297.8630 0012130 233.4687 126.5348 13.51015988 76099
QIANFAN-81              
1 63167U 25046J   26193.23678497  .00000095  00000+0  12900-3 0  9995
2 63167  88.9723 297.9327 0013768 222.6106 137.3978 13.51023461 76046
QIANFAN-82              
1 63168U 25046K   26193.26972485  .00000088  00000+0  11807-3 0  9990
2 63168  88.9724 297.9734 0011394 228.5590 131.4583 13.51017896 76036
QIANFAN-83              
1 63169U 25046L   26193.27657418  .00000119  00000+0  13791-3 0  9997
2 63169  88.9725 297.3325 0013706 201.2753 158.7837 13.62050192 76397
QIANFAN-84              
1 63170U 25046M   26193.22474794  .00000020  00000+0  13037-4 0  9993
2 63170  88.9723 298.1107 0014568 226.5737 133.4203 13.51043439 75955
QIANFAN-85              
1 63171U 25046N   26193.22033103  .00000096  00000+0  13036-3 0  9990
2 63171  88.9723 297.9813 0011937 227.7624 132.2515 13.51015676 76026
QIANFAN-86              
1 63172U 25046P   26193.30266628  .00000068  00000+0  86516-4 0  9993
2 63172  88.9725 297.8399 0009658 230.3683 129.6616 13.51023090 76110
QIANFAN-87              
1 63173U 25046Q   26193.19983931  .00000097  00000+0  13106-3 0  9990
2 63173  88.9722 297.9543 0010357 225.7680 134.2622 13.51008654 76032
QIANFAN-88              
1 63174U 25046R   26193.29037434  .00000100  00000+0  13565-3 0  9994
2 63174  88.9724 297.9047 0010519 235.3086 124.7075 13.51016394 76071
QIANFAN-89              
1 63175U 25046S   26193.25325057  .00000104  00000+0  14317-3 0  9992
2 63175  88.9724 298.0975 0015380 227.4507 132.5347 13.51023561 75965
QIANFAN-90              
1 63176U 25046T   26193.28203256  .00000107  00000+0  14765-3 0  9992
2 63176  88.9724 298.0674 0012382 224.1359 135.8805 13.51015783 75984
PUNCH-NFI (SMEX 15A)    
1 63178U 25047A   26192.97713726  .00000275  00000+0  48466-4 0  9990
2 63178  97.9568  18.0160 0012491  80.3853 279.8767 14.74795162 71731
PUNCH-WFI 1 (SMEX 15B)  
1 63179U 25047B   26192.96269166  .00000288  00000+0  50912-4 0  9997
2 63179  97.9587  17.8428 0010431  97.5587 262.6807 14.74375747 71719
PUNCH-WFI 3 (SMEX 15D)  
1 63180U 25047C   26192.98542845  .00000290  00000+0  51257-4 0  9995
2 63180  97.9550  17.5693 0011475  89.5046 270.7477 14.74377299 71719
PUNCH-WFI 2 (SMEX 15C)  
1 63181U 25047D   26193.00835270  .00000293  00000+0  51736-4 0  9992
2 63181  97.9571  17.6660 0010780 101.2357 259.0064 14.74377504 71714
SPHEREX (MIDEX 9)       
1 63182U 25047E   26192.96205408  .00000537  00000+0  89007-4 0  9994
2 63182  97.9582  17.3302 0011696 111.0725 249.1736 14.74110517 71694
STARLINK-11602 [DTC]    
1 63183U 25048A   26193.28709615  .00133045  00000+0  10195-2 0  9992
2 63183  42.9994 289.1791 0000932 252.2749 107.8017 15.70942171 77737
